     0.01953125       1.179939       493934.3       1.000000      -12345.00
       0.000000       10.00000      -1012.788      -12345.00       1.000000
       0.000000      -12345.00      -12345.00      -12345.00      -12345.00
      -12345.00      -12345.00      -12345.00      -12345.00      -9.000000
      -12345.00       1500.000   1.907350e-06      -12345.00      -12345.00
      -12345.00      -12345.00      -12345.00      -12345.00      -12345.00
      -12345.00       28.85620       85.29390       4142.000      -12345.00
     -0.4610000       133.0920      -12345.00       13000.00      -12345.00
       11.26400      0.9939200      0.3650900     -0.6618214      -12345.00
      -12345.00      -12345.00      -12345.00      -12345.00   1.048580e+09
       6028.340       306.7265       113.9818       54.16892      -4.996603
     0.05000000       3466.998       23.98175       90.00000      -12345.00
      -12345.00      -12345.00      -12345.00      -12345.00      -12345.00
      -12345.00      -12345.00      -12345.00      -12345.00      -12345.00
      2004       210         3        56        28
       560         6         0         0       513
       701         1    -12345    -12345    -12345
         4         5        13    -12345    -12345
    -12345    -12345        40    -12345    -12345
    -12345    -12345    -12345    -12345    -12345
    -12345    -12345    -12345    -12345    -12345
         1         1         1         1         0
H0641    2004,210,03:56:2
01      -12345  -12345  
MCCCt0  -12345  -12345  
-12345  -12345  -12345  
-12345  -12345  -12345  
-12345  -12345  SNRdb   
CCMEAN  CCSTD   Q       
XF      -12345  -12345  
       79633.51       78403.93       317445.8       493934.3       447575.0
       234748.9       30653.68       23674.29       17118.21       10427.53
       11549.02       5304.820       4948.525       3709.087       1093.524
       1239.558       1008.121       770.5660       561.6437       1199.659
       1046.240       678.0536       987.1249       610.3301       334.2836
       471.0564       330.7520       128.3494       327.9046       439.4726
       249.6932       357.1102       385.1035       168.0349       229.9764
       234.2751       106.6838       110.9228       220.6704       174.8550
       131.3348       228.8862       158.7803       101.1666       162.2325
       111.7550       43.09551       115.1097       130.8245       67.27946
       121.2345       136.4505       63.56736       97.46193       103.7380
       44.05542       57.40765       92.71457       64.68455       54.84538
       99.35277       70.14702       49.14686       82.16615       56.60408
       26.46388       61.39903       61.35847       29.19542       61.08758
       68.43509       32.52230       54.20448       58.52497       24.81041
       36.30614       51.73428       32.23582       30.86783       55.18491
       38.58638       29.22456       49.75476       34.21510       18.51511
       39.03099       35.42104       16.19858       37.14973       40.62135
       19.37560       34.70609       37.57516       16.12136       25.44745
       33.40158       18.87730       20.39242       35.08028       23.93789
       19.50773       33.42597       22.87449       13.85818       27.40031
       23.07678       10.58155       25.27073       26.66823       12.67658
       24.24465       26.14663       11.38697       19.04412       23.58057
       12.27903       14.88343       24.31505       16.02419       14.06079
       24.03956       16.31772       10.85636       20.51158       16.28372
       7.776699       18.53415       18.74036       8.861230       17.98323
       19.21509       8.492105       14.91885       17.67751       8.630005
       11.62134       17.91361       11.31130       10.71967       18.14605
       12.17598       8.794885       16.06123       12.15420       6.209406
       14.35805       13.83580       6.527558       13.94869       14.69655
       6.576612       12.08123       13.83491       6.438396       9.507987
       13.82327       8.311776       8.544897       14.21239       9.380722
       7.309039       12.99249       9.463171       5.243266       11.58733
       10.62392       5.039861       11.20397       11.58015       5.238513
       10.04003       11.17944       5.040644       8.054138       11.05989
       6.307404       7.060661       11.45279       7.411227       6.207962
       10.78410       7.604803       4.591021       9.652989       8.411371
       4.062484       9.262663       9.348665       4.272708       8.521638
       9.260456       4.095843       6.991043       9.112984       4.923667
       6.014066       9.453913       5.967811       5.371708       9.131307
       6.258765       4.113327       8.248385       6.840202       3.415778
       7.847715       7.698512       3.556132       7.354748       7.818166
       3.428855       6.184482       7.693974       3.943352       5.256816
       7.967910       4.880784       4.721766       7.857049       5.254498
       3.748723       7.188078       5.689902       2.985195       6.789971
       6.443489       3.018534       6.447009       6.700446       2.940132
       5.556139       6.627970       3.237057       4.694759       6.837795
       4.044003       4.211173       6.855933       4.476585       3.455268
       6.367390       4.826101       2.694240       5.982291       5.477073
       2.614865       5.725283       5.817697       2.571053       5.052832
       5.798536       2.723023       4.277382       5.959486       3.393326
       3.815521       6.054279       3.855079       3.209288       5.717211
       4.163733       2.495782       5.361951       4.715840       2.305821
       5.146654       5.106586       2.278958       4.636076       5.149786
       2.345196       3.950105       5.272971       2.881481       3.504080
       5.405746       3.350277       3.007065       5.187817       3.642943
       2.357700       4.868537       4.115585       2.084427       4.681149
       4.524793       2.049869       4.294257       4.623272       2.059076
       3.694617       4.724188       2.474957       3.256615       4.874205
       2.943238       2.842323       4.751655       3.227176       2.259447
       4.477627       3.628211       1.921645       4.306140       4.042199
       1.866340       4.007979       4.191586       1.844299       3.493254
       4.283816       2.151255       3.065110       4.439288       2.597079
       2.698951       4.391869       2.887916       2.184713       4.161552
       3.240777       1.812112       3.995799       3.640147       1.722499
       3.764947       3.832682       1.683377       3.330297       3.928608
       1.897896       2.916462       4.076985       2.309931       2.584654
       4.081538       2.606201       2.134514       3.906088       2.920671
       1.742804       3.750342       3.299716       1.607642       3.562263
       3.529160       1.559086       3.199151       3.636282       1.696645
       2.804493       3.775908       2.064967       2.491188       3.824549
       2.372269       2.097375       3.693124       2.657856       1.699842
       3.548948       3.016037       1.523500       3.394971       3.271144
       1.459862       3.089717       3.393363       1.544784       2.723929
       3.526734       1.860743       2.421449       3.605407       2.165745
       2.065360       3.517025       2.443031       1.681925       3.387849
       2.778574       1.469655       3.256054       3.047073       1.384843
       3.001822       3.189455       1.424087       2.665226       3.322590
       1.690345       2.370321       3.419841       1.993305       2.047114
       3.372110       2.261705       1.681360       3.258986       2.573547
       1.434683       3.143397       2.855549       1.332095       2.932121
       3.021654       1.335163       2.624955       3.154708       1.546604
       2.336958       3.262350       1.840755       2.039062       3.253992
       2.108805       1.691931       3.158965       2.405079       1.425043
       3.052902       2.690700       1.297857       2.877037       2.873259
       1.268779       2.604515       3.017008       1.433714       2.325584
       3.132618       1.707427       2.039086       3.152857       1.975651
       1.713244       3.087055       2.259049       1.429747       2.991298
       2.546965       1.274990       2.838119       2.755166       1.224408
       2.593089       2.902125       1.341785       2.324910       3.029155
       1.595668       2.051786       3.074364       1.863207       1.742639
       3.028474       2.143898       1.456352       2.947822       2.423563
       1.269277       2.813941       2.646422       1.194565       2.598841
       2.813316       1.277681       2.345860       2.943989       1.497769
       2.077307       3.009689       1.763757       1.780761       2.991391
       2.044724       1.494044       2.923756       2.322573       1.281747
       2.804294       2.557831       1.180740       2.616318       2.742650
       1.230040       2.378555       2.878563       1.417804       2.114032
       2.964336       1.681112       1.832673       2.970116       1.957000
       1.543419       2.917084       2.238387       1.312485       2.813430
       2.485922       1.179939       2.642551       2.687339       1.197447
       2.424793       2.836172       1.356317       2.170142       2.931084
       1.605441       1.889707       2.964400
