     0.03906250       6.104646       107339.9       1.000000      -12345.00
       0.000000       10.00000      -1017.591      -12345.00       1.000000
       0.000000      -12345.00      -12345.00      -12345.00      -12345.00
      -12345.00      -12345.00      -12345.00      -12345.00      -9.000000
      -12345.00       1500.000   1.907350e-06      -12345.00      -12345.00
      -12345.00      -12345.00      -12345.00      -12345.00      -12345.00
      -12345.00       28.85620       85.29390       4142.000      -12345.00
     -0.4610000       133.0920      -12345.00       13000.00      -12345.00
       20.47700      0.9354200      0.3409600     -0.8588282      -12345.00
      -12345.00      -12345.00      -12345.00      -12345.00   1.048580e+09
       6028.340       306.7265       113.9818       54.16892      -7.999596
     0.05000000       2068.898       23.98175       90.00000      -12345.00
      -12345.00      -12345.00      -12345.00      -12345.00      -12345.00
      -12345.00      -12345.00      -12345.00      -12345.00      -12345.00
      2004       210         3        56        28
       560         6         0         0       257
       401         1    -12345    -12345    -12345
         4         5        13    -12345    -12345
    -12345    -12345        40    -12345    -12345
    -12345    -12345    -12345    -12345    -12345
    -12345    -12345    -12345    -12345    -12345
         1         1         1         1         0
H0641    2004,210,03:56:2
01      -12345  -12345  
MCCCt0  -12345  -12345  
-12345  -12345  -12345  
-12345  -12345  -12345  
-12345  -12345  SNRdb   
CCMEAN  CCSTD   Q       
XF      -12345  -12345  
       16864.00       22906.23       60144.03       107339.9       98785.70
       77900.53       55968.64       32153.39       21165.83       8115.569
       4364.647       4997.476       1848.569       3626.852       1568.348
       1291.184       722.6932       1192.742       990.7897       554.3560
       500.7306       505.7745       442.6050       361.2921       292.5549
       267.9519       284.2080       279.2088       233.4630       202.2885
       211.7446       214.8178       192.9575       166.9335       152.7565
       152.0223       149.2446       132.2971       112.4062       110.7444
       116.9964       111.1337       97.57326       92.18114       94.81003
       94.59535       87.92687       78.63748       74.57866       76.55568
       75.08636       66.84934       60.61225       62.23390       63.87270
       60.21725       55.04664       53.39018       54.56641       54.46296
       50.76163       46.08894       45.40707       46.95478       45.24834
       40.81938       38.91983       40.24413       40.56621       38.40792
       35.81726       35.17627       36.12233       35.83967       33.14590
       30.78301       31.26315       32.02557       30.45311       28.06707
       27.58371       28.44621       28.43586       26.96985       25.38103
       25.32244       26.10192       25.52064       23.51698       22.50421
       23.21218       23.43127       22.17941       20.86919       20.85028
       21.46189       21.32123       20.13976       19.14844       19.46170
       19.96658       19.19286       17.80730       17.53916       18.14218
       18.08232       17.13285       16.37290       16.54605       17.02006
       16.74180       15.72793       15.21463       15.68847       15.89448
       15.09026       14.21957       14.30519       14.74764       14.56624
       13.82397       13.37360       13.66716       14.00676       13.58741
       12.76596       12.62726       13.08967       13.05599       12.33798
       11.84325       12.07522       12.38809       12.13968       11.52610
       11.30305       11.66830       11.84302       11.32980       10.73941
       10.84843       11.21104       11.03031       10.44115       10.19759
       10.48500       10.69438       10.38572       9.878287       9.850765
       10.22093       10.22351       9.692928       9.339116       9.575505
       9.816611       9.560448       9.096798       9.022011       9.330279
       9.437877       9.073360       8.689378       8.821507       9.129497
       8.986571       8.508611       8.357704       8.638506       8.772683
       8.477997       8.122360       8.177977       8.478424       8.472158
       8.077398       7.841300       8.075821       8.285968       8.047127
       7.660397       7.660299       7.941694       7.984639       7.668430
       7.415453       7.575813       7.832333       7.715148       7.337611
       7.250480       7.523951       7.628965       7.342868       7.060701
       7.170511       7.424482       7.382106       7.061412       6.920421
       7.151449       7.331952       7.122577       6.804982       6.850543
       7.119309       7.125801       6.825372       6.649850       6.836411
       7.045662       6.920150       6.616702       6.592507       6.857553
       6.942617       6.677612       6.448809       6.594414       6.828955
       6.751934       6.459828       6.388480       6.627044       6.769608
       6.572129       6.317761       6.401731       6.660594       6.651050
       6.365998       6.239266       6.454022       6.633759       6.485804
       6.225146       6.256242       6.515380       6.575710       6.328112
       6.149670       6.323893       6.545908       6.450813       6.178411
       6.157515       6.410687       6.521804       6.314655       6.108066
       6.237131       6.485285       6.453967       6.186175       6.104646
       6.343328       6.509481
